{
  "norad_id": 47873,
  "name": "STARLINK-2329",
  "history": [
    {
      "epoch": "2026-05-03T16:37:23.149920Z",
      "apogee_km": 471.63809616468916,
      "perigee_km": 469.81492869767953,
      "latitude_deg": 2.997752210864261e-06,
      "longitude_deg": -111.23671881213149,
      "height_km": 471.7279517199275,
      "semi_major_axis_km": 6848.863512431184,
      "eccentricity": 0.0001331,
      "inclination_deg": 53.1608,
      "raan_deg": 359.7024,
      "arg_perigee_deg": 96.4729,
      "mean_anomaly_deg": 263.6424,
      "mean_motion_rev_day": 15.31704523
    },
    {
      "epoch": "2026-05-04T19:14:43.609632Z",
      "apogee_km": 471.3769584670217,
      "perigee_km": 470.1181334874709,
      "latitude_deg": 3.158810894980555e-05,
      "longitude_deg": -156.8312911620003,
      "height_km": 471.47429154908053,
      "semi_major_axis_km": 6848.8845459772465,
      "eccentricity": 9.19e-05,
      "inclination_deg": 53.1598,
      "raan_deg": 354.5364,
      "arg_perigee_deg": 74.1022,
      "mean_anomaly_deg": 286.0081,
      "mean_motion_rev_day": 15.31697467
    },
    {
      "epoch": "2026-05-05T18:44:07.156032Z",
      "apogee_km": 470.948635976124,
      "perigee_km": 470.4336041014967,
      "latitude_deg": 7.705052055742613e-05,
      "longitude_deg": -154.69866585273616,
      "height_km": 471.65656269980866,
      "semi_major_axis_km": 6848.82812003881,
      "eccentricity": 3.76e-05,
      "inclination_deg": 53.1589,
      "raan_deg": 349.9818,
      "arg_perigee_deg": 104.7858,
      "mean_anomaly_deg": 255.3186,
      "mean_motion_rev_day": 15.31716396
    },
    {
      "epoch": "2026-05-06T19:47:29.848992Z",
      "apogee_km": 471.49184137840984,
      "perigee_km": 470.06452745397746,
      "latitude_deg": -1.1838034052993074e-05,
      "longitude_deg": -176.43441589652076,
      "height_km": 471.46204112809147,
      "semi_major_axis_km": 6848.915184416193,
      "eccentricity": 0.0001042,
      "inclination_deg": 53.1582,
      "raan_deg": 345.1197,
      "arg_perigee_deg": 72.4677,
      "mean_anomaly_deg": 287.6438,
      "mean_motion_rev_day": 15.31687189
    },
    {
      "epoch": "2026-05-07T20:50:53.236608Z",
      "apogee_km": 471.5287618384791,
      "perigee_km": 470.0206314828747,
      "latitude_deg": 2.5604379157104247e-05,
      "longitude_deg": 161.82932617960984,
      "height_km": 471.5871307868916,
      "semi_major_axis_km": 6848.911696660677,
      "eccentricity": 0.0001101,
      "inclination_deg": 53.1602,
      "raan_deg": 340.2599,
      "arg_perigee_deg": 83.4145,
      "mean_anomaly_deg": 276.6982,
      "mean_motion_rev_day": 15.31688359
    },
    {
      "epoch": "2026-05-08T20:20:17.811168Z",
      "apogee_km": 471.5217309478394,
      "perigee_km": 469.89581496133906,
      "latitude_deg": -8.9462188289071e-06,
      "longitude_deg": 163.9564970205104,
      "height_km": 471.5550840208167,
      "semi_major_axis_km": 6848.845772954589,
      "eccentricity": 0.0001187,
      "inclination_deg": 53.1608,
      "raan_deg": 335.7042,
      "arg_perigee_deg": 86.2932,
      "mean_anomaly_deg": 273.8205,
      "mean_motion_rev_day": 15.31710474
    },
    {
      "epoch": "2026-05-09T19:49:42.644064Z",
      "apogee_km": 471.6780071283729,
      "perigee_km": 469.8096324407361,
      "latitude_deg": 3.085529609287602e-05,
      "longitude_deg": 166.08194469393084,
      "height_km": 471.613719116892,
      "semi_major_axis_km": 6848.880819784555,
      "eccentricity": 0.0001364,
      "inclination_deg": 53.1617,
      "raan_deg": 331.1478,
      "arg_perigee_deg": 88.2327,
      "mean_anomaly_deg": 271.8831,
      "mean_motion_rev_day": 15.31698717
    },
    {
      "epoch": "2026-05-10T19:19:06.657024Z",
      "apogee_km": 471.73125312307,
      "perigee_km": 469.6930356177054,
      "latitude_deg": 6.507061448226592e-06,
      "longitude_deg": 168.21007122922322,
      "height_km": 471.6144093803588,
      "semi_major_axis_km": 6848.849144370387,
      "eccentricity": 0.0001488,
      "inclination_deg": 53.1622,
      "raan_deg": 326.5907,
      "arg_perigee_deg": 90.2062,
      "mean_anomaly_deg": 269.911,
      "mean_motion_rev_day": 15.31709343
    },
    {
      "epoch": "2026-05-11T20:22:28.707168Z",
      "apogee_km": 471.6266541900395,
      "perigee_km": 469.8240336211229,
      "latitude_deg": 7.991264053872221e-06,
      "longitude_deg": 146.47837794948052,
      "height_km": 471.6814650782981,
      "semi_major_axis_km": 6848.862343905581,
      "eccentricity": 0.0001316,
      "inclination_deg": 53.161,
      "raan_deg": 321.7299,
      "arg_perigee_deg": 93.6522,
      "mean_anomaly_deg": 266.463,
      "mean_motion_rev_day": 15.31704915
    },
    {
      "epoch": "2026-05-12T19:51:52.307136Z",
      "apogee_km": 471.61448626791116,
      "perigee_km": 469.7748900764682,
      "latitude_deg": -9.339584181438756e-06,
      "longitude_deg": 148.60913678737086,
      "height_km": 471.63809873255843,
      "semi_major_axis_km": 6848.831688172189,
      "eccentricity": 0.0001343,
      "inclination_deg": 53.1607,
      "raan_deg": 317.1737,
      "arg_perigee_deg": 92.7897,
      "mean_anomaly_deg": 267.3258,
      "mean_motion_rev_day": 15.31715199
    },
    {
      "epoch": "2026-05-13T11:31:29.164224Z",
      "apogee_km": 471.54138350376434,
      "perigee_km": 469.9305285845012,
      "latitude_deg": -1.0360535599383078e-05,
      "longitude_deg": -89.9716778946977,
      "height_km": 471.62685700627753,
      "semi_major_axis_km": 6848.8729560441325,
      "eccentricity": 0.0001176,
      "inclination_deg": 53.1602,
      "raan_deg": 314.1396,
      "arg_perigee_deg": 89.4372,
      "mean_anomaly_deg": 270.6764,
      "mean_motion_rev_day": 15.31701355
    }
  ]
}